{
  "type": "FeatureCollection",
  "features": [
    {
      "type": "Feature",
      "properties": {
        "norad_id": 34878,
        "name": "COSMOS 2251 DEB",
        "group": "cosmos-2251-debris",
        "lat": 39.067244501107105,
        "lon": -167.12801118933876,
        "alt_km": 1298.4161903682789,
        "timestamp": "2025-12-25T22:42:17.408492+00:00",
        "meta_object_name": "COSMOS 2251 DEB",
        "meta_object_id": "1993-036ACR",
        "meta_epoch": "2025-12-24T20:09:00.800640",
        "meta_mean_motion": 13.44206529,
        "meta_eccentricity": 0.04357079,
        "meta_inclination": 73.9646,
        "meta_ra_of_asc_node": 28.1265,
        "meta_arg_of_pericenter": 9.2783,
        "meta_mean_anomaly": 173.5848,
        "meta_ephemeris_type": 0,
        "meta_classification_type": "U",
        "meta_norad_cat_id": 34878,
        "meta_element_set_no": 999,
        "meta_rev_at_epoch": 81435,
        "meta_bstar": 0.00069766947,
        "meta_mean_motion_dot": 6.96e-06,
        "meta_mean_motion_ddot": 0,
        "tle_line1": "1 34878U 93036ACR 25358.83959260  .00000696  00000+0  69767-3 0  9994",
        "tle_line2": "2 34878  73.9646  28.1265 0435707   9.2783 173.5848 13.44206529814359"
      },
      "geometry": {
        "type": "Point",
        "coordinates": [
          -167.12801118933876,
          39.067244501107105
        ]
      }
    },
    {
      "type": "Feature",
      "properties": {
        "norad_id": 34882,
        "name": "COSMOS 2251 DEB",
        "group": "cosmos-2251-debris",
        "lat": 50.14060198968352,
        "lon": 0.3039303963619208,
        "alt_km": 739.2455392792908,
        "timestamp": "2025-12-25T22:42:17.408503+00:00",
        "meta_object_name": "COSMOS 2251 DEB",
        "meta_object_id": "1993-036ACV",
        "meta_epoch": "2025-12-24T14:54:49.727232",
        "meta_mean_motion": 14.61616436,
        "meta_eccentricity": 0.00833525,
        "meta_inclination": 74.0451,
        "meta_ra_of_asc_node": 202.874,
        "meta_arg_of_pericenter": 327.0403,
        "meta_mean_anomaly": 32.5581,
        "meta_ephemeris_type": 0,
        "meta_classification_type": "U",
        "meta_norad_cat_id": 34882,
        "meta_element_set_no": 999,
        "meta_rev_at_epoch": 88698,
        "meta_bstar": 0.00012189648,
        "meta_mean_motion_dot": 6.03e-06,
        "meta_mean_motion_ddot": 0,
        "tle_line1": "1 34882U 93036ACV 25358.62140888  .00000603  00000+0  12190-3 0  9990",
        "tle_line2": "2 34882  74.0451 202.8740 0083352 327.0403  32.5581 14.61616436886982"
      },
      "geometry": {
        "type": "Point",
        "coordinates": [
          0.3039303963619208,
          50.14060198968352
        ]
      }
    },
    {
      "type": "Feature",
      "properties": {
        "norad_id": 34883,
        "name": "COSMOS 2251 DEB",
        "group": "cosmos-2251-debris",
        "lat": 58.34769120150295,
        "lon": 65.43530557574756,
        "alt_km": 775.785458120883,
        "timestamp": "2025-12-25T22:42:17.408513+00:00",
        "meta_object_name": "COSMOS 2251 DEB",
        "meta_object_id": "1993-036ACW",
        "meta_epoch": "2025-12-25T12:29:30.541632",
        "meta_mean_motion": 14.51859717,
        "meta_eccentricity": 0.0094459,
        "meta_inclination": 74.2013,
        "meta_ra_of_asc_node": 38.8875,
        "meta_arg_of_pericenter": 221.5013,
        "meta_mean_anomaly": 137.8952,
        "meta_ephemeris_type": 0,
        "meta_classification_type": "U",
        "meta_norad_cat_id": 34883,
        "meta_element_set_no": 999,
        "meta_rev_at_epoch": 86625,
        "meta_bstar": 0.0033923,
        "meta_mean_motion_dot": 0.00014484,
        "meta_mean_motion_ddot": 0,
        "tle_line1": "1 34883U 93036ACW 25359.52049238  .00014484  00000+0  33923-2 0  9996",
        "tle_line2": "2 34883  74.2013  38.8875 0094459 221.5013 137.8952 14.51859717866259"
      },
      "geometry": {
        "type": "Point",
        "coordinates": [
          65.43530557574756,
          58.34769120150295
        ]
      }
    },
    {
      "type": "Feature",
      "properties": {
        "norad_id": 34884,
        "name": "COSMOS 2251 DEB",
        "group": "cosmos-2251-debris",
        "lat": 31.854515272378837,
        "lon": 40.52998293073202,
        "alt_km": 591.5581326346228,
        "timestamp": "2025-12-25T22:42:17.408523+00:00",
        "meta_object_name": "COSMOS 2251 DEB",
        "meta_object_id": "1993-036ACX",
        "meta_epoch": "2025-12-25T05:09:45.606816",
        "meta_mean_motion": 14.90612339,
        "meta_eccentricity": 0.0003184,
        "meta_inclination": 74.0172,
        "meta_ra_of_asc_node": 31.7366,
        "meta_arg_of_pericenter": 28.5094,
        "meta_mean_anomaly": 44.2037,
        "meta_ephemeris_type": 0,
        "meta_classification_type": "U",
        "meta_norad_cat_id": 34884,
        "meta_element_set_no": 999,
        "meta_rev_at_epoch": 87991,
        "meta_bstar": 0.002404,
        "meta_mean_motion_dot": 0.0002359,
        "meta_mean_motion_ddot": 0,
        "tle_line1": "1 34884U 93036ACX 25359.21511119  .00023590  00000+0  24040-2 0  9993",
        "tle_line2": "2 34884  74.0172  31.7366 0003184  28.5094  44.2037 14.90612339879912"
      },
      "geometry": {
        "type": "Point",
        "coordinates": [
          40.52998293073202,
          31.854515272378837
        ]
      }
    },
    {
      "type": "Feature",
      "properties": {
        "norad_id": 34885,
        "name": "COSMOS 2251 DEB",
        "group": "cosmos-2251-debris",
        "lat": -52.49519292407062,
        "lon": 0.06393653809280538,
        "alt_km": 716.5498745177356,
        "timestamp": "2025-12-25T22:42:17.408533+00:00",
        "meta_object_name": "COSMOS 2251 DEB",
        "meta_object_id": "1993-036ACY",
        "meta_epoch": "2025-12-25T11:57:17.899776",
        "meta_mean_motion": 14.51570479,
        "meta_eccentricity": 0.0015049,
        "meta_inclination": 74.0302,
        "meta_ra_of_asc_node": 158.9983,
        "meta_arg_of_pericenter": 244.4409,
        "meta_mean_anomaly": 171.444,
        "meta_ephemeris_type": 0,
        "meta_classification_type": "U",
        "meta_norad_cat_id": 34885,
        "meta_element_set_no": 999,
        "meta_rev_at_epoch": 87664,
        "meta_bstar": 0.00079142,
        "meta_mean_motion_dot": 3.146e-05,
        "meta_mean_motion_ddot": 0,
        "tle_line1": "1 34885U 93036ACY 25359.49812384  .00003146  00000+0  79142-3 0  9991",
        "tle_line2": "2 34885  74.0302 158.9983 0015049 244.4409 171.4440 14.51570479876640"
      },
      "geometry": {
        "type": "Point",
        "coordinates": [
          0.06393653809280538,
          -52.49519292407062
        ]
      }
    },
    {
      "type": "Feature",
      "properties": {
        "norad_id": 34886,
        "name": "COSMOS 2251 DEB",
        "group": "cosmos-2251-debris",
        "lat": 2.8950309928754234,
        "lon": -28.504841833179942,
        "alt_km": 467.21650764061815,
        "timestamp": "2025-12-25T22:42:17.408544+00:00",
        "meta_object_name": "COSMOS 2251 DEB",
        "meta_object_id": "1993-036ACZ",
        "meta_epoch": "2025-12-24T03:50:55.292352",
        "meta_mean_motion": 15.40106218,
        "meta_eccentricity": 0.0031856,
        "meta_inclination": 73.9515,
        "meta_ra_of_asc_node": 156.2077,
        "meta_arg_of_pericenter": 338.1702,
        "meta_mean_anomaly": 21.8145,
        "meta_ephemeris_type": 0,
        "meta_classification_type": "U",
        "meta_norad_cat_id": 34886,
        "meta_element_set_no": 999,
        "meta_rev_at_epoch": 63174,
        "meta_bstar": 0.0019524781,
        "meta_mean_motion_dot": 0.00080389,
        "meta_mean_motion_ddot": 0,
        "tle_line1": "1 34886U 93036ACZ 25358.16036218  .00080389  00000+0  19525-2 0  9991",
        "tle_line2": "2 34886  73.9515 156.2077 0031856 338.1702  21.8145 15.40106218631746"
      },
      "geometry": {
        "type": "Point",
        "coordinates": [
          -28.504841833179942,
          2.8950309928754234
        ]
      }
    },
    {
      "type": "Feature",
      "properties": {
        "norad_id": 34907,
        "name": "COSMOS 2251 DEB",
        "group": "cosmos-2251-debris",
        "lat": -6.192947187408358,
        "lon": -158.84180487524077,
        "alt_km": 415.5708308165258,
        "timestamp": "2025-12-25T22:42:17.408554+00:00",
        "meta_object_name": "COSMOS 2251 DEB",
        "meta_object_id": "1993-036ADC",
        "meta_epoch": "2025-12-24T02:37:30.225504",
        "meta_mean_motion": 15.52535461,
        "meta_eccentricity": 0.00168337,
        "meta_inclination": 73.9648,
        "meta_ra_of_asc_node": 23.4353,
        "meta_arg_of_pericenter": 325.481,
        "meta_mean_anomaly": 34.5309,
        "meta_ephemeris_type": 0,
        "meta_classification_type": "U",
        "meta_norad_cat_id": 34907,
        "meta_element_set_no": 999,
        "meta_rev_at_epoch": 88149,
        "meta_bstar": 0.0074290364,
        "meta_mean_motion_dot": 0.00487105,
        "meta_mean_motion_ddot": 0,
        "tle_line1": "1 34907U 93036ADC 25358.10937761  .00487105  00000+0  74290-2 0  9999",
        "tle_line2": "2 34907  73.9648  23.4353 0016833 325.4810  34.5309 15.52535461881497"
      },
      "geometry": {
        "type": "Point",
        "coordinates": [
          -158.84180487524077,
          -6.192947187408358
        ]
      }
    }
  ]
}